NORAD_CAT_ID,OBJECT_NAME,OBJECT_TYPE,EPOCH,MEAN_MOTION,ECCENTRICITY,INCLINATION,RA_OF_ASC_NODE,ARG_OF_PERICENTER,MEAN_ANOMALY,BSTAR,MEAN_MOTION_DOT,MEAN_MOTION_DDOT,TLE_LINE0,TLE_LINE1,TLE_LINE2,SEMIMAJOR_AXIS,PERIOD,APOGEE,PERIGEE,DECAYED
49728.0,STARLINK-3240,PAYLOAD,2022-11-01 06:03:12,15.08841961,0.0001981,53.2177,255.832,52.588,307.5292,0.00013572,1.873e-05,0.0,0 STARLINK-3240,1 49728U 21115E   22305.25222278  .00001873  00000-0  13572-3 0  9992,2 49728  53.2177 255.8320 0001981  52.5880 307.5292 15.08841961 51657,6917.874,95.437,541.11,538.369,0.0
49728.0,STARLINK-3240,PAYLOAD,2022-11-01 14:00:08,15.08830789,0.0002292,53.2174,254.3444,44.8,315.3177,0.00014641,2.042e-05,0.0,0 STARLINK-3240,1 49728U 21115E   22305.58343216  .00002042  00000-0  14641-3 0  9991,2 49728  53.2174 254.3444 0002292  44.8000 315.3177 15.08830789 51700,6917.909000000002,95.438,541.359,538.188,0.0
49728.0,STARLINK-3240,PAYLOAD,2022-11-02 02:43:12,15.08848413,0.0002316999999999,53.2176,251.9663,45.7615,314.3567,7.7522e-05,9.46e-06,0.0,0 STARLINK-3240,1 49728U 21115E   22306.11334327  .00000946  00000-0  77522-4 0  9993,2 49728  53.2176 251.9663 0002317  45.7615 314.3567 15.08848413 51781,6917.855,95.437,541.323,538.117,0.0
49728.0,STARLINK-3240,PAYLOAD,2022-11-02 05:53:59,15.08846694,0.000216,53.2172,251.3716,44.8779,315.2387,6.8154e-05,7.97e-06,0.0,0 STARLINK-3240,1 49728U 21115E   22306.24582364  .00000797  00000-0  68154-4 0  9998,2 49728  53.2172 251.3716 0002160  44.8779 315.2387 15.08846694 50695,6917.86,95.437,541.219,538.231,0.0
49728.0,STARLINK-3240,PAYLOAD,2022-11-02 13:50:55,15.08836587,0.000216,53.217,249.8841,48.3488,311.7689,-1.4578e-06,-3.11e-06,0.0,0 STARLINK-3240,1 49728U 21115E   22306.57703211 -.00000311  00000-0 -14578-5 0  9996,2 49728  53.2170 249.8841 0002160  48.3488 311.7689 15.08836587 51855,6917.891,95.438,541.25,538.262,0.0
49728.0,STARLINK-3240,PAYLOAD,2022-11-03 05:44:47,15.08833817,0.000203,53.2176,246.9079,51.8701,308.2474,7.1427e-06,-1.75e-06,0.0,0 STARLINK-3240,1 49728U 21115E   22307.23943522 -.00000175  00000-0  71427-5 0  9994,2 49728  53.2176 246.9079 0002030  51.8701 308.2474 15.08833817 50849,6917.899,95.438,541.169,538.36,0.0
49728.0,STARLINK-3240,PAYLOAD,2022-11-04 02:24:41,15.08911804,0.0002046,53.2185,243.0456,39.3112,320.8029,0.00060911,9.438e-05,0.0,0 STARLINK-3240,1 49728U 21115E   22308.10048383  .00009438  00000-0  60911-3 0  9996,2 49728  53.2185 243.0456 0002046  39.3112 320.8029 15.08911804 52087,6917.661,95.433,540.941,538.111,0.0
49728.0,STARLINK-3240,PAYLOAD,2022-11-04 05:35:27,15.08913236,0.0002116,53.2182,242.4499,36.6481,323.4656,0.00060279,9.337e-05,0.0,0 STARLINK-3240,1 49728U 21115E   22308.23295815  .00009337  00000-0  60279-3 0  9999,2 49728  53.2182 242.4499 0002116  36.6481 323.4656 15.08913236 50995,6917.656999999997,95.433,540.985,538.058,0.0
49728.0,STARLINK-3240,PAYLOAD,2022-11-04 19:53:57,15.08873801,0.000185,53.2186,239.7722,45.2621,314.8522,0.00038591,5.865e-05,0.0,0 STARLINK-3240,1 49728U 21115E   22308.82913337  .00005865  00000-0  38591-3 0  9994,2 49728  53.2186 239.7722 0001850  45.2621 314.8522 15.08873801 52196,6917.776999999999,95.435,540.922,538.362,0.0
49728.0,STARLINK-3240,PAYLOAD,2022-11-05 03:50:58,15.08808079,0.0002617,53.2164,238.2901,26.2646,333.8478,-0.00033431,-5.601e-05,0.0,0 STARLINK-3240,1 49728U 21115E   22309.16039662 -.00005601  00000-0 -33431-3 0  9990,2 49728  53.2164 238.2901 0002617  26.2646 333.8478 15.08808079 52245,6917.978,95.44,541.653,538.033,0.0
49728.0,STARLINK-3240,PAYLOAD,2022-11-05 05:26:21,15.08806243,0.0002506,53.2163,237.9927,27.7052,332.4073,-0.0003371,-5.645e-05,0.0,0 STARLINK-3240,1 49728U 21115E   22309.22663835 -.00005645  00000-0 -33710-3 0  9990,2 49728  53.2163 237.9927 0002506  27.7052 332.4073 15.08806243 51147,6917.984,95.44,541.582,538.115,0.0
49728.0,STARLINK-3240,PAYLOAD,2022-11-06 03:41:44,15.08846942,0.0001978,53.2176,233.8288,33.3691,326.7425,-0.00076315,-0.00012416,0.0,0 STARLINK-3240,1 49728U 21115E   22310.15399118 -.00012416  00000-0 -76315-3 0  9996,2 49728  53.2176 233.8288 0001978  33.3691 326.7425 15.08846942 52395,6917.859,95.437,541.0930000000002,538.356,0.0
49728.0,STARLINK-3240,PAYLOAD,2022-11-06 05:17:07,15.088490099999998,0.0001916,53.2176,233.5301,34.149,325.9625,-0.00077043,-0.00012532,0.0,0 STARLINK-3240,1 49728U 21115E   22310.22022894 -.00012532  00000-0 -77043-3 0  9996,2 49728  53.2176 233.5301 0001916  34.1490 325.9625 15.08849010 51296,6917.853,95.437,541.043,538.3919999999998,0.0
49728.0,STARLINK-3240,PAYLOAD,2022-11-06 19:35:36,15.087930300000002,0.0002432,53.2169,230.8549,30.1897,329.9235,0.00029475,4.4e-05,0.0,0 STARLINK-3240,1 49728U 21115E   22310.81639904  .00004400  00000-0  29475-3 0  9996,2 49728  53.2169 230.8549 0002432  30.1897 329.9235 15.08793030 52497,6918.024,95.441,541.571,538.206,0.0
49728.0,STARLINK-3240,PAYLOAD,2022-11-07 00:21:46,15.08798913,0.0002359,53.2173,229.9638,36.5356,323.5796,0.00033578,5.054e-05,0.0,0 STARLINK-3240,1 49728U 21115E   22311.01512067  .00005054  00000-0  33578-3 0  9994,2 49728  53.2173 229.9638 0002359  36.5356 323.5796 15.08798913 52529,6918.005999999999,95.44,541.503,538.239,0.0
49728.0,STARLINK-3240,PAYLOAD,2022-11-07 21:01:47,15.08831124,0.0002192,53.2156,226.0972,34.4986,325.6148,0.00037278,5.648e-05,0.0,0 STARLINK-3240,1 49728U 21115E   22311.87624592  .00005648  00000-0  37278-3 0  9995,2 49728  53.2156 226.0972 0002192  34.4986 325.6148 15.08831124 51547,6917.908,95.438,541.289,538.256,0.0
49728.0,STARLINK-3240,PAYLOAD,2022-11-08 01:47:56,15.08843538,0.0002559,53.2165,225.2037,30.3996,329.7144,0.00060247,9.314e-05,0.0,0 STARLINK-3240,1 49728U 21115E   22312.07496324  .00009314  00000-0  60247-3 0  9994,2 49728  53.2165 225.2037 0002559  30.3996 329.7144 15.08843538 52682,6917.87,95.437,541.505,537.964,0.0
49728.0,STARLINK-3240,PAYLOAD,2022-11-08 03:23:19,15.08845219,0.0002127,53.216,224.9056,32.7469,327.3655,0.00055424,8.545e-05,0.0,0 STARLINK-3240,1 49728U 21115E   22312.14119928  .00008545  00000-0  55424-3 0  9990,2 49728  53.2160 224.9056 0002127  32.7469 327.3655 15.08845219 51583,6917.864000000001,95.437,541.201,538.258,0.0
49728.0,STARLINK-3240,PAYLOAD,2022-11-08 17:41:46,15.08878633,0.0002291,53.2153,222.2316,33.9952,326.1186,0.00079224,0.00012356,0.0,0 STARLINK-3240,1 49728U 21115E   22312.73734654  .00012356  00000-0  79224-3 0  9993,2 49728  53.2153 222.2316 0002291  33.9952 326.1186 15.08878633 52782,6917.762,95.435,541.212,538.0419999999998,0.0
49728.0,STARLINK-3240,PAYLOAD,2022-11-08 20:52:33,15.08858399,0.0002708,53.2154,221.6363,30.6248,329.4902,-0.00011407,-2.105e-05,0.0,0 STARLINK-3240,1 49728U 21115E   22312.86982900 -.00002105  00000-0 -11407-3 0  9998,2 49728  53.2154 221.6363 0002708  30.6248 329.4902 15.08858399 51691,6917.824000000001,95.436,541.562,537.816,0.0
49728.0,STARLINK-3240,PAYLOAD,2022-11-09 03:14:05,15.08851124,0.0002515,53.2151,220.447,32.1256,327.9889,-0.00032406,-5.444e-05,0.0,0 STARLINK-3240,1 49728U 21115E   22313.13478803 -.00005444  00000-0 -32406-3 0  9992,2 49728  53.2151 220.4470 0002515  32.1256 327.9889 15.08851124 52840,6917.846,95.437,541.451,537.972,0.0
49728.0,STARLINK-3240,PAYLOAD,2022-11-09 12:46:24,15.08852052,0.0002516,53.215,218.663,33.0851,327.0298,0.00013701,1.894e-05,0.0,0 STARLINK-3240,1 49728U 21115E   22313.53222586  .00001894  00000-0  13701-3 0  9991,2 49728  53.2150 218.6630 0002516  33.0851 327.0298 15.08852052 51797,6917.844,95.437,541.4490000000002,537.9680000000002,0.0
49728.0,STARLINK-3240,PAYLOAD,2022-11-09 20:43:20,15.08841765,0.0002291,53.2149,217.1758,34.5217,325.5924,0.00014871,2.079e-05,0.0,0 STARLINK-3240,1 49728U 21115E   22313.86342720  .00002079  00000-0  14871-3 0  9995,2 49728  53.2149 217.1758 0002291  34.5217 325.5924 15.08841765 51846,6917.875,95.437,541.325,538.155,0.0
49728.0,STARLINK-3240,PAYLOAD,2022-11-10 03:04:53,15.08825108,0.000228,53.2154,215.9867,34.4064,325.7076,-0.00020444,-3.539e-05,0.0,0 STARLINK-3240,1 49728U 21115E   22314.12839245 -.00003539  00000-0 -20444-3 0  9995,2 49728  53.2154 215.9867 0002280  34.4064 325.7076 15.08825108 51883,6917.926,95.438,541.368,538.214,0.0
49728.0,STARLINK-3240,PAYLOAD,2022-11-10 17:23:21,15.08837078,0.0002495,53.2155,213.3109,27.2623,332.85,0.00030417,4.556e-05,0.0,0 STARLINK-3240,1 49728U 21115E   22314.72455485  .00004556  00000-0  30417-3 0  9990,2 49728  53.2155 213.3109 0002495  27.2623 332.8500 15.08837078 53088,6917.889,95.438,541.48,538.028,0.0
49728.0,STARLINK-3240,PAYLOAD,2022-11-11 02:55:40,15.08830955,0.0002642,53.2159,211.5271,26.2148,333.8977,0.00010902,1.447e-05,0.0,0 STARLINK-3240,1 49728U 21115E   22315.12200004  .00001447  00000-0  10902-3 0  9993,2 49728  53.2159 211.5271 0002642  26.2148 333.8977 15.08830955 53140,6917.908,95.438,541.601,537.945,0.0
49728.0,STARLINK-3240,PAYLOAD,2022-11-11 10:52:36,15.08838466,0.0002687,53.2157,210.0406,27.7299,332.3836,0.00028887,4.312e-05,0.0,0 STARLINK-3240,1 49728U 21115E   22315.45319979  .00004312  00000-0  28887-3 0  9996,2 49728  53.2157 210.0406 0002687  27.7299 332.3836 15.08838466 52089,6917.885,95.438,541.609,537.891,0.0
49728.0,STARLINK-3240,PAYLOAD,2022-11-11 20:24:55,15.08832202,0.0002546,53.2153,208.2561,28.6343,331.4788,0.00014752,2.060000000000001e-05,0.0,0 STARLINK-3240,1 49728U 21115E   22315.85064367  .00002060  00000-0  14752-3 0  9992,2 49728  53.2153 208.2561 0002546  28.6343 331.4788 15.08832202 52145,6917.904,95.438,541.531,538.008,0.0
49728.0,STARLINK-3240,PAYLOAD,2022-11-11 23:35:41,15.08837618,0.0002495,53.2154,207.6605,29.8807,330.2327,0.00010726,1.419e-05,0.0,0 STARLINK-3240,1 49728U 21115E   22315.98312084  .00001419  00000-0  10726-3 0  9992,2 49728  53.2154 207.6605 0002495  29.8807 330.2327 15.08837618 52163,6917.888000000001,95.438,541.479,538.0269999999998,0.0
